{"type": "FeatureCollection", "features": [{"type": "Feature", "properties": {"norad_id": 25590, "name": "COSMOS 2361", "group": "musson", "lat": -56.211590566712474, "lon": -25.2948752215594, "alt_km": 976.3881322241377, "timestamp": "2025-12-10T23:33:13.088302+00:00", "meta": {"OBJECT_NAME": "COSMOS 2361", "OBJECT_ID": "1998-076A", "EPOCH": "2025-12-10T12:08:02.704704", "MEAN_MOTION": 13.73217127, "ECCENTRICITY": 0.00300567, "INCLINATION": 82.9338, "RA_OF_ASC_NODE": 345.739, "ARG_OF_PERICENTER": 272.0915, "MEAN_ANOMALY": 200.0139, "EPHEMERIS_TYPE": 0, "CLASSIFICATION_TYPE": "U", "NORAD_CAT_ID": 25590, "ELEMENT_SET_NO": 999, "REV_AT_EPOCH": 35080, "BSTAR": 8.5020317e-05, "MEAN_MOTION_DOT": 9.4e-07, "MEAN_MOTION_DDOT": 0}, "tle": {"line1": "1 25590U 98076A   25344.50558686  .00000094  00000+0  85020-4 0  9993", "line2": "2 25590  82.9338 345.7390 0030056 272.0915 200.0139 13.73217127350802"}}, "geometry": {"type": "Point", "coordinates": [-25.2948752215594, -56.211590566712474]}}, {"type": "Feature", "properties": {"norad_id": 26818, "name": "COSMOS 2378", "group": "musson", "lat": 9.734711197613946, "lon": 2.249400190251692, "alt_km": 1008.6204641082086, "timestamp": "2025-12-10T23:33:13.088320+00:00", "meta": {"OBJECT_NAME": "COSMOS 2378", "OBJECT_ID": "2001-023A", "EPOCH": "2025-12-10T11:48:43.250400", "MEAN_MOTION": 13.74141732, "ECCENTRICITY": 0.00322803, "INCLINATION": 82.9273, "RA_OF_ASC_NODE": 1.3916, "ARG_OF_PERICENTER": 211.2505, "MEAN_ANOMALY": 259.7094, "EPHEMERIS_TYPE": 0, "CLASSIFICATION_TYPE": "U", "NORAD_CAT_ID": 26818, "ELEMENT_SET_NO": 999, "REV_AT_EPOCH": 22892, "BSTAR": 5.9731447e-05, "MEAN_MOTION_DOT": 7.1e-07, "MEAN_MOTION_DDOT": 0}, "tle": {"line1": "1 26818U 01023A   25344.49216725  .00000071  00000+0  59731-4 0  9991", "line2": "2 26818  82.9273   1.3916 0032280 211.2505 259.7094 13.74141732228921"}}, "geometry": {"type": "Point", "coordinates": [2.249400190251692, 9.734711197613946]}}, {"type": "Feature", "properties": {"norad_id": 27436, "name": "COSMOS 2389", "group": "musson", "lat": -30.474319008548946, "lon": 132.46232332421243, "alt_km": 1015.7912539411363, "timestamp": "2025-12-10T23:33:13.088332+00:00", "meta": {"OBJECT_NAME": "COSMOS 2389", "OBJECT_ID": "2002-026A", "EPOCH": "2025-12-10T10:54:24.322752", "MEAN_MOTION": 13.75154267, "ECCENTRICITY": 0.00476693, "INCLINATION": 82.95, "RA_OF_ASC_NODE": 308.6765, "ARG_OF_PERICENTER": 66.9463, "MEAN_ANOMALY": 56.1274, "EPHEMERIS_TYPE": 0, "CLASSIFICATION_TYPE": "U", "NORAD_CAT_ID": 27436, "ELEMENT_SET_NO": 999, "REV_AT_EPOCH": 18117, "BSTAR": 9.1929717e-05, "MEAN_MOTION_DOT": 1.04e-06, "MEAN_MOTION_DDOT": 0}, "tle": {"line1": "1 27436U 02026A   25344.45444818  .00000104  00000+0  91930-4 0  9998", "line2": "2 27436  82.9500 308.6765 0047669  66.9463  56.1274 13.75154267181173"}}, "geometry": {"type": "Point", "coordinates": [132.46232332421243, -30.474319008548946]}}, {"type": "Feature", "properties": {"norad_id": 27818, "name": "COSMOS 2398", "group": "musson", "lat": -0.9327483028293534, "lon": 94.10946327168568, "alt_km": 983.6103183110217, "timestamp": "2025-12-10T23:33:13.088342+00:00", "meta": {"OBJECT_NAME": "COSMOS 2398", "OBJECT_ID": "2003-023A", "EPOCH": "2025-12-10T13:01:08.735808", "MEAN_MOTION": 13.72385409, "ECCENTRICITY": 0.00325067, "INCLINATION": 82.9484, "RA_OF_ASC_NODE": 274.3174, "ARG_OF_PERICENTER": 117.6704, "MEAN_ANOMALY": 55.4197, "EPHEMERIS_TYPE": 0, "CLASSIFICATION_TYPE": "U", "NORAD_CAT_ID": 27818, "ELEMENT_SET_NO": 999, "REV_AT_EPOCH": 12786, "BSTAR": 9.8488857e-05, "MEAN_MOTION_DOT": 1.06e-06, "MEAN_MOTION_DDOT": 0}, "tle": {"line1": "1 27818U 03023A   25344.54246222  .00000106  00000+0  98489-4 0  9997", "line2": "2 27818  82.9484 274.3174 0032506 117.6704  55.4197 13.72385409127860"}}, "geometry": {"type": "Point", "coordinates": [94.10946327168568, -0.9327483028293534]}}, {"type": "Feature", "properties": {"norad_id": 28380, "name": "COSMOS 2407", "group": "musson", "lat": -9.087991653237292, "lon": -146.9378715689783, "alt_km": 970.0688485070095, "timestamp": "2025-12-10T23:33:13.088352+00:00", "meta": {"OBJECT_NAME": "COSMOS 2407", "OBJECT_ID": "2004-028A", "EPOCH": "2025-12-10T15:00:04.529952", "MEAN_MOTION": 13.76313347, "ECCENTRICITY": 0.00404009, "INCLINATION": 82.9609, "RA_OF_ASC_NODE": 214.4584, "ARG_OF_PERICENTER": 60.5884, "MEAN_ANOMALY": 326.1848, "EPHEMERIS_TYPE": 0, "CLASSIFICATION_TYPE": "U", "NORAD_CAT_ID": 28380, "ELEMENT_SET_NO": 999, "REV_AT_EPOCH": 7394, "BSTAR": 7.1765852e-05, "MEAN_MOTION_DOT": 8.6e-07, "MEAN_MOTION_DDOT": 0}, "tle": {"line1": "1 28380U 04028A   25344.62505243  .00000086  00000+0  71766-4 0  9994", "line2": "2 28380  82.9609 214.4584 0040400  60.5884 326.1848 13.76313347 73947"}}, "geometry": {"type": "Point", "coordinates": [-146.9378715689783, -9.087991653237292]}}, {"type": "Feature", "properties": {"norad_id": 28521, "name": "COSMOS 2414", "group": "musson", "lat": -1.9587546585679452, "lon": 6.2321494434506395, "alt_km": 915.3814547725788, "timestamp": "2025-12-10T23:33:13.088363+00:00", "meta": {"OBJECT_NAME": "COSMOS 2414", "OBJECT_ID": "2005-002A", "EPOCH": "2025-12-10T12:18:05.361120", "MEAN_MOTION": 13.87902523, "ECCENTRICITY": 0.00407672, "INCLINATION": 82.9493, "RA_OF_ASC_NODE": 186.3442, "ARG_OF_PERICENTER": 145.9271, "MEAN_ANOMALY": 214.4522, "EPHEMERIS_TYPE": 0, "CLASSIFICATION_TYPE": "U", "NORAD_CAT_ID": 28521, "ELEMENT_SET_NO": 999, "REV_AT_EPOCH": 5764, "BSTAR": 7.192649e-05, "MEAN_MOTION_DOT": 1.02e-06, "MEAN_MOTION_DDOT": 0}, "tle": {"line1": "1 28521U 05002A   25344.51256205  .00000102  00000+0  71926-4 0  9990", "line2": "2 28521  82.9493 186.3442 0040767 145.9271 214.4522 13.87902523 57648"}}, "geometry": {"type": "Point", "coordinates": [6.2321494434506395, -1.9587546585679452]}}, {"type": "Feature", "properties": {"norad_id": 32052, "name": "COSMOS 2429", "group": "musson", "lat": 35.75593582800885, "lon": -10.304885224912402, "alt_km": 949.8703015704923, "timestamp": "2025-12-10T23:33:13.088372+00:00", "meta": {"OBJECT_NAME": "COSMOS 2429", "OBJECT_ID": "2007-038A", "EPOCH": "2025-12-10T11:09:22.781664", "MEAN_MOTION": 13.75149052, "ECCENTRICITY": 0.00393507, "INCLINATION": 82.9802, "RA_OF_ASC_NODE": 344.9859, "ARG_OF_PERICENTER": 44.061, "MEAN_ANOMALY": 316.3671, "EPHEMERIS_TYPE": 0, "CLASSIFICATION_TYPE": "U", "NORAD_CAT_ID": 32052, "ELEMENT_SET_NO": 999, "REV_AT_EPOCH": 91571, "BSTAR": 7.5521775e-05, "MEAN_MOTION_DOT": 8.8e-07, "MEAN_MOTION_DDOT": 0}, "tle": {"line1": "1 32052U 07038A   25344.46484701  .00000088  00000+0  75522-4 0  9992", "line2": "2 32052  82.9802 344.9859 0039350  44.0610 316.3671 13.75149052915717"}}, "geometry": {"type": "Point", "coordinates": [-10.304885224912402, 35.75593582800885]}}, {"type": "Feature", "properties": {"norad_id": 35635, "name": "COSMOS 2454", "group": "musson", "lat": -38.86353624938802, "lon": -4.30336882546447, "alt_km": 946.8948918548895, "timestamp": "2025-12-10T23:33:13.088383+00:00", "meta": {"OBJECT_NAME": "COSMOS 2454", "OBJECT_ID": "2009-039A", "EPOCH": "2025-12-10T12:24:35.911584", "MEAN_MOTION": 13.89928109, "ECCENTRICITY": 0.00204802, "INCLINATION": 82.9553, "RA_OF_ASC_NODE": 170.3299, "ARG_OF_PERICENTER": 79.6873, "MEAN_ANOMALY": 337.28, "EPHEMERIS_TYPE": 0, "CLASSIFICATION_TYPE": "U", "NORAD_CAT_ID": 35635, "ELEMENT_SET_NO": 999, "REV_AT_EPOCH": 83119, "BSTAR": 6.168139e-05, "MEAN_MOTION_DOT": 9.2e-07, "MEAN_MOTION_DDOT": 0}, "tle": {"line1": "1 35635U 09039A   25344.51708231  .00000092  00000+0  61681-4 0  9994", "line2": "2 35635  82.9553 170.3299 0020480  79.6873 337.2800 13.89928109831196"}}, "geometry": {"type": "Point", "coordinates": [-4.30336882546447, -38.86353624938802]}}, {"type": "Feature", "properties": {"norad_id": 36519, "name": "COSMOS 2463", "group": "musson", "lat": 14.937546744899937, "lon": 29.893759047059252, "alt_km": 990.7626357824756, "timestamp": "2025-12-10T23:33:13.088392+00:00", "meta": {"OBJECT_NAME": "COSMOS 2463", "OBJECT_ID": "2010-017A", "EPOCH": "2025-12-10T11:46:29.650080", "MEAN_MOTION": 13.71648963, "ECCENTRICITY": 0.00348363, "INCLINATION": 82.9615, "RA_OF_ASC_NODE": 28.3655, "ARG_OF_PERICENTER": 294.5247, "MEAN_ANOMALY": 178.1615, "EPHEMERIS_TYPE": 0, "CLASSIFICATION_TYPE": "U", "NORAD_CAT_ID": 36519, "ELEMENT_SET_NO": 999, "REV_AT_EPOCH": 78206, "BSTAR": 6.8221398e-05, "MEAN_MOTION_DOT": 7.6e-07, "MEAN_MOTION_DDOT": 0}, "tle": {"line1": "1 36519U 10017A   25344.49062095  .00000076  00000+0  68221-4 0  9991", "line2": "2 36519  82.9615  28.3655 0034836 294.5247 178.1615 13.71648963782063"}}, "geometry": {"type": "Point", "coordinates": [29.893759047059252, 14.937546744899937]}}]}